CCSDS_OMM_VERS = 2.0
CREATION_DATE  = 
ORIGINATOR     = 

OBJECT_NAME    = STARLINK-35499
OBJECT_ID      = 2025-262G
CENTER_NAME    = EARTH
REF_FRAME      = TEME
TIME_SYSTEM    = UTC
MEAN_ELEMENT_THEORY = SGP/SGP4

EPOCH          = 2025-12-03T12:00:02.998944
MEAN_MOTION    = 15.59719224
ECCENTRICITY   = .0001096
INCLINATION    = 42.9997
RA_OF_ASC_NODE = 125.2155
ARG_OF_PERICENTER = 270.6423
MEAN_ANOMALY   = 258.7737

EPHEMERIS_TYPE = 0
CLASSIFICATION_TYPE = U
NORAD_CAT_ID   = 66462
ELEMENT_SET_NO = 999
REV_AT_EPOCH   = 415
BSTAR          = -.29369E-1
MEAN_MOTION_DOT = -.2144527E-1
MEAN_MOTION_DDOT = 0

CCSDS_OMM_VERS = 2.0
CREATION_DATE  = 
ORIGINATOR     = 

OBJECT_NAME    = STARLINK-35463
OBJECT_ID      = 2025-262H
CENTER_NAME    = EARTH
REF_FRAME      = TEME
TIME_SYSTEM    = UTC
MEAN_ELEMENT_THEORY = SGP/SGP4

EPOCH          = 2025-12-03T12:00:02.998944
MEAN_MOTION    = 15.59719378
ECCENTRICITY   = .0001307
INCLINATION    = 42.9997
RA_OF_ASC_NODE = 125.2055
ARG_OF_PERICENTER = 271.7889
MEAN_ANOMALY   = 261.4609

EPHEMERIS_TYPE = 0
CLASSIFICATION_TYPE = U
NORAD_CAT_ID   = 66463
ELEMENT_SET_NO = 999
REV_AT_EPOCH   = 415
BSTAR          = -.29399E-1
MEAN_MOTION_DOT = -.2146609E-1
MEAN_MOTION_DDOT = 0

CCSDS_OMM_VERS = 2.0
CREATION_DATE  = 
ORIGINATOR     = 

OBJECT_NAME    = STARLINK-35435
OBJECT_ID      = 2025-262J
CENTER_NAME    = EARTH
REF_FRAME      = TEME
TIME_SYSTEM    = UTC
MEAN_ELEMENT_THEORY = SGP/SGP4

EPOCH          = 2025-12-03T12:00:02.998944
MEAN_MOTION    = 15.59720949
ECCENTRICITY   = .0001143
INCLINATION    = 42.9997
RA_OF_ASC_NODE = 125.2106
ARG_OF_PERICENTER = 276.4878
MEAN_ANOMALY   = 254.8426

EPHEMERIS_TYPE = 0
CLASSIFICATION_TYPE = U
NORAD_CAT_ID   = 66464
ELEMENT_SET_NO = 999
REV_AT_EPOCH   = 415
BSTAR          = -.29389E-1
MEAN_MOTION_DOT = -.2146003E-1
MEAN_MOTION_DDOT = 0

CCSDS_OMM_VERS = 2.0
CREATION_DATE  = 
ORIGINATOR     = 

OBJECT_NAME    = STARLINK-35448
OBJECT_ID      = 2025-262K
CENTER_NAME    = EARTH
REF_FRAME      = TEME
TIME_SYSTEM    = UTC
MEAN_ELEMENT_THEORY = SGP/SGP4

EPOCH          = 2025-12-03T12:00:02.998944
MEAN_MOTION    = 15.59714299
ECCENTRICITY   = .0001109
INCLINATION    = 42.9998
RA_OF_ASC_NODE = 125.1964
ARG_OF_PERICENTER = 264.3055
MEAN_ANOMALY   = 272.7828

EPHEMERIS_TYPE = 0
CLASSIFICATION_TYPE = U
NORAD_CAT_ID   = 66465
ELEMENT_SET_NO = 999
REV_AT_EPOCH   = 415
BSTAR          = -.29303E-1
MEAN_MOTION_DOT = -.2139909E-1
MEAN_MOTION_DDOT = 0

CCSDS_OMM_VERS = 2.0
CREATION_DATE  = 
ORIGINATOR     = 

OBJECT_NAME    = STARLINK-35388
OBJECT_ID      = 2025-262L
CENTER_NAME    = EARTH
REF_FRAME      = TEME
TIME_SYSTEM    = UTC
MEAN_ELEMENT_THEORY = SGP/SGP4

EPOCH          = 2025-12-03T12:00:02.998944
MEAN_MOTION    = 15.59712558
ECCENTRICITY   = .0001193
INCLINATION    = 42.9997
RA_OF_ASC_NODE = 125.1903
ARG_OF_PERICENTER = 267.3661
MEAN_ANOMALY   = 271.6348

EPHEMERIS_TYPE = 0
CLASSIFICATION_TYPE = U
NORAD_CAT_ID   = 66466
ELEMENT_SET_NO = 999
REV_AT_EPOCH   = 415
BSTAR          = -.29188E-1
MEAN_MOTION_DOT = -.2132364E-1
MEAN_MOTION_DDOT = 0

CCSDS_OMM_VERS = 2.0
CREATION_DATE  = 
ORIGINATOR     = 

OBJECT_NAME    = STARLINK-35682
OBJECT_ID      = 2025-262M
CENTER_NAME    = EARTH
REF_FRAME      = TEME
TIME_SYSTEM    = UTC
MEAN_ELEMENT_THEORY = SGP/SGP4

EPOCH          = 2025-12-03T12:00:02.998944
MEAN_MOTION    = 15.59720349
ECCENTRICITY   = .0001346
INCLINATION    = 42.9997
RA_OF_ASC_NODE = 125.2010
ARG_OF_PERICENTER = 265.3139
MEAN_ANOMALY   = 269.8539

EPHEMERIS_TYPE = 0
CLASSIFICATION_TYPE = U
NORAD_CAT_ID   = 66467
ELEMENT_SET_NO = 999
REV_AT_EPOCH   = 415
BSTAR          = -.29427E-1
MEAN_MOTION_DOT = -.214855E-1
MEAN_MOTION_DDOT = 0

CCSDS_OMM_VERS = 2.0
CREATION_DATE  = 
ORIGINATOR     = 

OBJECT_NAME    = STARLINK-35331
OBJECT_ID      = 2025-262N
CENTER_NAME    = EARTH
REF_FRAME      = TEME
TIME_SYSTEM    = UTC
MEAN_ELEMENT_THEORY = SGP/SGP4

EPOCH          = 2025-12-03T12:00:02.998944
MEAN_MOTION    = 15.59722142
ECCENTRICITY   = .0001079
INCLINATION    = 42.9994
RA_OF_ASC_NODE = 125.1863
ARG_OF_PERICENTER = 273.1467
MEAN_ANOMALY   = 267.7704

EPHEMERIS_TYPE = 0
CLASSIFICATION_TYPE = U
NORAD_CAT_ID   = 66468
ELEMENT_SET_NO = 999
REV_AT_EPOCH   = 415
BSTAR          = -.2944E-1
MEAN_MOTION_DOT = -.2149353E-1
MEAN_MOTION_DDOT = 0

CCSDS_OMM_VERS = 2.0
CREATION_DATE  = 
ORIGINATOR     = 

OBJECT_NAME    = STARLINK-35451
OBJECT_ID      = 2025-262P
CENTER_NAME    = EARTH
REF_FRAME      = TEME
TIME_SYSTEM    = UTC
MEAN_ELEMENT_THEORY = SGP/SGP4

EPOCH          = 2025-12-03T12:00:02.998944
MEAN_MOTION    = 15.59718652
ECCENTRICITY   = .0001053
INCLINATION    = 42.9996
RA_OF_ASC_NODE = 125.1711
ARG_OF_PERICENTER = 268.0861
MEAN_ANOMALY   = 278.5842

EPHEMERIS_TYPE = 0
CLASSIFICATION_TYPE = U
NORAD_CAT_ID   = 66469
ELEMENT_SET_NO = 999
REV_AT_EPOCH   = 415
BSTAR          = -.29365E-1
MEAN_MOTION_DOT = -.2144166E-1
MEAN_MOTION_DDOT = 0

CCSDS_OMM_VERS = 2.0
CREATION_DATE  = 
ORIGINATOR     = 

OBJECT_NAME    = STARLINK-35655
OBJECT_ID      = 2025-262Q
CENTER_NAME    = EARTH
REF_FRAME      = TEME
TIME_SYSTEM    = UTC
MEAN_ELEMENT_THEORY = SGP/SGP4

EPOCH          = 2025-12-03T12:00:02.998944
MEAN_MOTION    = 15.59722205
ECCENTRICITY   = .0001164
INCLINATION    = 42.9993
RA_OF_ASC_NODE = 125.1817
ARG_OF_PERICENTER = 275.2452
MEAN_ANOMALY   = 267.5884

EPHEMERIS_TYPE = 0
CLASSIFICATION_TYPE = U
NORAD_CAT_ID   = 66470
ELEMENT_SET_NO = 999
REV_AT_EPOCH   = 415
BSTAR          = -.29442E-1
MEAN_MOTION_DOT = -.2149501E-1
MEAN_MOTION_DDOT = 0

CCSDS_OMM_VERS = 2.0
CREATION_DATE  = 
ORIGINATOR     = 

OBJECT_NAME    = STARLINK-35569
OBJECT_ID      = 2025-262R
CENTER_NAME    = EARTH
REF_FRAME      = TEME
TIME_SYSTEM    = UTC
MEAN_ELEMENT_THEORY = SGP/SGP4

EPOCH          = 2025-12-03T12:00:02.998944
MEAN_MOTION    = 15.59717313
ECCENTRICITY   = .0001125
INCLINATION    = 42.9996
RA_OF_ASC_NODE = 125.1760
ARG_OF_PERICENTER = 271.2014
MEAN_ANOMALY   = 273.5531

EPHEMERIS_TYPE = 0
CLASSIFICATION_TYPE = U
NORAD_CAT_ID   = 66471
ELEMENT_SET_NO = 999
REV_AT_EPOCH   = 415
BSTAR          = -.2935E-1
MEAN_MOTION_DOT = -.2143149E-1
MEAN_MOTION_DDOT = 0

CCSDS_OMM_VERS = 2.0
CREATION_DATE  = 
ORIGINATOR     = 

OBJECT_NAME    = STARLINK-35567
OBJECT_ID      = 2025-262S
CENTER_NAME    = EARTH
REF_FRAME      = TEME
TIME_SYSTEM    = UTC
MEAN_ELEMENT_THEORY = SGP/SGP4

EPOCH          = 2025-12-03T12:00:02.998944
MEAN_MOTION    = 15.59720744
ECCENTRICITY   = .0001163
INCLINATION    = 42.9995
RA_OF_ASC_NODE = 125.1663
ARG_OF_PERICENTER = 276.2116
MEAN_ANOMALY   = 272.3723

EPHEMERIS_TYPE = 0
CLASSIFICATION_TYPE = U
NORAD_CAT_ID   = 66472
ELEMENT_SET_NO = 999
REV_AT_EPOCH   = 415
BSTAR          = -.29385E-1
MEAN_MOTION_DOT = -.2145702E-1
MEAN_MOTION_DDOT = 0

CCSDS_OMM_VERS = 2.0
CREATION_DATE  = 
ORIGINATOR     = 

OBJECT_NAME    = STARLINK-35568
OBJECT_ID      = 2025-262T
CENTER_NAME    = EARTH
REF_FRAME      = TEME
TIME_SYSTEM    = UTC
MEAN_ELEMENT_THEORY = SGP/SGP4

EPOCH          = 2025-12-03T12:00:02.998944
MEAN_MOTION    = 15.59723563
ECCENTRICITY   = .0001103
INCLINATION    = 42.9993
RA_OF_ASC_NODE = 125.1618
ARG_OF_PERICENTER = 267.4350
MEAN_ANOMALY   = 283.0653

EPHEMERIS_TYPE = 0
CLASSIFICATION_TYPE = U
NORAD_CAT_ID   = 66473
ELEMENT_SET_NO = 999
REV_AT_EPOCH   = 415
BSTAR          = -.29432E-1
MEAN_MOTION_DOT = -.2148951E-1
MEAN_MOTION_DDOT = 0

