STARLINK-35499          
1 66462U 25262G   25337.50003471 -.02144527  00000+0 -29369-1 0  9997
2 66462  42.9997 125.2155 0001096 270.6423 258.7737 15.59719224  4151
STARLINK-35463          
1 66463U 25262H   25337.50003471 -.02146609  00000+0 -29399-1 0  9994
2 66463  42.9997 125.2055 0001307 271.7889 261.4609 15.59719378  4153
STARLINK-35435          
1 66464U 25262J   25337.50003471 -.02146003  00000+0 -29389-1 0  9992
2 66464  42.9997 125.2106 0001143 276.4878 254.8426 15.59720949  4158
STARLINK-35448          
1 66465U 25262K   25337.50003471 -.02139909  00000+0 -29303-1 0  9996
2 66465  42.9998 125.1964 0001109 264.3055 272.7828 15.59714299  4152
STARLINK-35388          
1 66466U 25262L   25337.50003471 -.02132364  00000+0 -29188-1 0  9996
2 66466  42.9997 125.1903 0001193 267.3661 271.6348 15.59712558  4155
STARLINK-35682          
1 66467U 25262M   25337.50003471 -.02148550  00000+0 -29427-1 0  9997
2 66467  42.9997 125.2010 0001346 265.3139 269.8539 15.59720349  4152
STARLINK-35331          
1 66468U 25262N   25337.50003471 -.02149353  00000+0 -29440-1 0  9995
2 66468  42.9994 125.1863 0001079 273.1467 267.7704 15.59722142  4153
STARLINK-35451          
1 66469U 25262P   25337.50003471 -.02144166  00000+0 -29365-1 0  9999
2 66469  42.9996 125.1711 0001053 268.0861 278.5842 15.59718652  4155
STARLINK-35655          
1 66470U 25262Q   25337.50003471 -.02149501  00000+0 -29442-1 0  9995
2 66470  42.9993 125.1817 0001164 275.2452 267.5884 15.59722205  4153
STARLINK-35569          
1 66471U 25262R   25337.50003471 -.02143149  00000+0 -29350-1 0  9996
2 66471  42.9996 125.1760 0001125 271.2014 273.5531 15.59717313  4151
STARLINK-35567          
1 66472U 25262S   25337.50003471 -.02145702  00000+0 -29385-1 0  9992
2 66472  42.9995 125.1663 0001163 276.2116 272.3723 15.59720744  4155
STARLINK-35568          
1 66473U 25262T   25337.50003471 -.02148951  00000+0 -29432-1 0  9995
2 66473  42.9993 125.1618 0001103 267.4350 283.0653 15.59723563  4153
